STARLINK-5612           
1 55754U 23028P   26160.02641075 -.00000322  00000+0 -19204-4 0  9999
2 55754  69.9994  14.0808 0002814 268.7295  91.3542 14.98331588179729
STARLINK-5614           
1 55756U 23028R   26160.00971566 -.00000141  00000+0 -40299-5 0  9998
2 55756  69.9997  14.0210 0002696 268.3671  91.7179 14.98329422179727
STARLINK-5544           
1 55757U 23028S   26160.03058603 -.00000207  00000+0 -95169-5 0  9999
2 55757  69.9996  14.0955 0002668 271.8144  88.2709 14.98330875179720
STARLINK-5072           
1 55758U 23028T   26160.02223391  .00000278  00000+0  31096-4 0  9991
2 55758  69.9996  14.0661 0002978 269.4576  90.6242 14.98332807179727
STARLINK-5532           
1 55760U 23028V   26160.00554056  .00000093  00000+0  15555-4 0  9994
2 55760  70.0000  14.0074 0002887 269.7921  90.2907 14.98330122179725
STARLINK-5611           
1 55761U 23028W   26159.91787544 -.00000077  00000+0  13786-5 0  9991
2 55761  69.9996 354.6246 0002901 269.3147  90.7680 14.98331056180197
STARLINK-5603           
1 55762U 23028X   26159.97194910 -.00000006  00000+0  72840-5 0  9995
2 55762  69.9993 354.4104 0002891 270.4205  89.6623 14.98330827180203
STARLINK-5593           
1 55763U 23028Y   26160.01389066  .00000652  00000+0  62465-4 0  9998
2 55763  69.9994  14.0367 0003234 271.1387  88.9401 14.98320669179720
STARLINK-5499           
1 55764U 23028Z   26159.97609485  .00004980  00000+0  42458-3 0  9999
2 55764  69.9994 354.4248 0003279 255.9619 104.1176 14.98358707180206
STARLINK-5595           
1 55765U 23028AA  26159.98029543  .00000034  00000+0  10600-4 0  9993
2 55765  69.9992 354.4390 0002810 273.2124  86.8713 14.98332401180203
STARLINK-5599           
1 55766U 23028AB  26159.88849247 -.00001180  00000+0 -91076-4 0  9995
2 55766  69.9997 354.5188 0002919 266.0397  94.0429 14.98331104180199
STARLINK-5606           
1 55767U 23028AC  26159.91771663  .00002390  00000+0  20810-3 0  9995
2 55767  69.9994 354.6230 0003000 270.8484  89.2331 14.98322676180178
STARLINK-5584           
1 55769U 23028AE  26159.96359454  .00000681  00000+0  64817-4 0  9999
2 55769  69.9997 354.3808 0002955 269.5212  90.5608 14.98336395180202
STARLINK-5557           
1 55770U 23028AF  26159.89267704  .00001008  00000+0  92287-4 0  9995
2 55770  69.9998 354.5341 0003017 267.9960  92.0853 14.98311286180190
STARLINK-5591           
1 55771U 23028AG  26159.88431958  .00000177  00000+0  22600-4 0  9997
2 55771  69.9995 354.5055 0002477 269.6850  90.4025 14.98329752180196
STARLINK-5835           
1 55772U 23028AH  26159.86778683 -.00000403  00000+0 -25951-4 0  9991
2 55772  69.9996 354.4482 0002722 267.8822  92.2025 14.98330273180193
STARLINK-5833           
1 55773U 23028AJ  26159.96777497  .00000036  00000+0  10818-4 0  9991
2 55773  69.9991 354.3931 0002749 272.1369  87.9475 14.98331011180204
STARLINK-5812           
1 55774U 23028AK  26159.88016230  .00000513  00000+0  50817-4 0  9997
2 55774  69.9997 354.4904 0002832 275.6948  84.3888 14.98322974180191
STARLINK-5809           
1 55775U 23028AL  26159.87596916  .00000380  00000+0  39608-4 0  9998
2 55775  69.9993 354.4758 0002847 267.1289  92.9544 14.98330531180197
STARLINK-5814           
1 55777U 23028AN  26159.86762242 -.00000306  00000+0 -17878-4 0  9991
2 55777  69.9993 354.4467 0002641 270.2706  89.8151 14.98330005180192
STARLINK-5816           
1 55778U 23028AP  26159.86345558  .00000516  00000+0  51049-4 0  9998
2 55778  69.9992 354.4320 0002707 274.7562  85.3288 14.98335084180196
STARLINK-5817           
1 55779U 23028AQ  26159.90076470  .00000076  00000+0  14173-4 0  9996
2 55779  70.0001 334.2791 0003137 268.9736  91.1063 14.98329462180699
STARLINK-5819           
1 55780U 23028AR  26159.85927169 -.00000138  00000+0 -37521-5 0  9996
2 55780  69.9996 354.4172 0002928 268.4606  91.6218 14.98331762180194
STARLINK-5820           
1 55781U 23028AS  26159.87179850 -.00000076  00000+0  14116-5 0  9990
2 55781  69.9996 354.4952 0002729 270.6573  89.4273 14.98329339180191
STARLINK-5826           
1 55782U 23028AT  26159.89678150  .00000508  00000+0  50345-4 0  9992
2 55782  69.9997 334.6719 0002823 266.7865  93.2971 14.98331337180682
STARLINK-5825           
1 55783U 23028AU  26159.89661649 -.00000031  00000+0  51605-5 0  9991
2 55783  69.9998 334.6703 0003045 268.7113  91.3697 14.98334051180682
STARLINK-5797           
1 55784U 23028AV  26159.88008553 -.00000478  00000+0 -32267-4 0  9998
2 55784  70.0006 334.6126 0002575 268.5706  91.5158 14.98328219180681
STARLINK-5818           
1 55785U 23028AW  26159.89244484  .00000080  00000+0  14514-4 0  9997
2 55785  69.9995 334.6554 0002150 270.8511  89.2402 14.98329333180684
STARLINK-5823           
1 55786U 23028AX  26160.00004630 -.00002700  00000+0 -21854-3 0  9997
2 55786  70.0008 334.3090 0003090 272.9364  14.9118 14.98333908  5675
STARLINK-5811           
1 55787U 23028AY  26159.88827051 -.00000173  00000+0 -67416-5 0  9990
2 55787  69.9992 334.6410 0002859 269.7663  90.3169 14.98328693180686
