OBJECT_NAME,OBJECT_ID,EPOCH,MEAN_MOTION,ECCENTRICITY,INCLINATION,RA_OF_ASC_NODE,ARG_OF_PERICENTER,MEAN_ANOMALY,EPHEMERIS_TYPE,CLASSIFICATION_TYPE,NORAD_CAT_ID,ELEMENT_SET_NO,REV_AT_EPOCH,BSTAR,MEAN_MOTION_DOT,MEAN_MOTION_DDOT
STARLINK-5612,2023-028P,2026-06-09T00:38:01.888800,14.98331588,.0002814,69.9994,14.0808,268.7295,91.3542,0,U,55754,999,17972,-.19204E-4,-.322E-5,0
STARLINK-5614,2023-028R,2026-06-09T00:13:59.433024,14.98329422,.0002696,69.9997,14.0210,268.3671,91.7179,0,U,55756,999,17972,-.40299E-5,-.141E-5,0
STARLINK-5544,2023-028S,2026-06-09T00:44:02.632992,14.98330875,.0002668,69.9996,14.0955,271.8144,88.2709,0,U,55757,999,17972,-.95169E-5,-.207E-5,0
STARLINK-5072,2023-028T,2026-06-09T00:32:01.009824,14.98332807,.0002978,69.9996,14.0661,269.4576,90.6242,0,U,55758,999,17972,.31096E-4,.278E-5,0
STARLINK-5532,2023-028V,2026-06-09T00:07:58.704384,14.98330122,.0002887,70.0000,14.0074,269.7921,90.2907,0,U,55760,999,17972,.15555E-4,.93E-6,0
STARLINK-5611,2023-028W,2026-06-08T22:01:44.438016,14.98331056,.0002901,69.9996,354.6246,269.3147,90.7680,0,U,55761,999,18019,.13786E-5,-.77E-6,0
STARLINK-5603,2023-028X,2026-06-08T23:19:36.402240,14.98330827,.0002891,69.9993,354.4104,270.4205,89.6623,0,U,55762,999,18020,.7284E-5,-.6E-7,0
STARLINK-5593,2023-028Y,2026-06-09T00:20:00.153024,14.98320669,.0003234,69.9994,14.0367,271.1387,88.9401,0,U,55763,999,17972,.62465E-4,.652E-5,0
STARLINK-5499,2023-028Z,2026-06-08T23:25:34.595040,14.98358707,.0003279,69.9994,354.4248,255.9619,104.1176,0,U,55764,999,18020,.42458E-3,.498E-4,0
STARLINK-5595,2023-028AA,2026-06-08T23:31:37.525152,14.98332401,.000281,69.9992,354.4390,273.2124,86.8713,0,U,55765,999,18020,.106E-4,.34E-6,0
STARLINK-5599,2023-028AB,2026-06-08T21:19:25.749408,14.98331104,.0002919,69.9997,354.5188,266.0397,94.0429,0,U,55766,999,18019,-.91076E-4,-.118E-4,0
STARLINK-5606,2023-028AC,2026-06-08T22:01:30.716832,14.98322676,.0003,69.9994,354.6230,270.8484,89.2331,0,U,55767,999,18017,.2081E-3,.239E-4,0
STARLINK-5584,2023-028AE,2026-06-08T23:07:34.568256,14.98336395,.0002955,69.9997,354.3808,269.5212,90.5608,0,U,55769,999,18020,.64817E-4,.681E-5,0
STARLINK-5557,2023-028AF,2026-06-08T21:25:27.296256,14.98311286,.0003017,69.9998,354.5341,267.9960,92.0853,0,U,55770,999,18019,.92287E-4,.1008E-4,0
STARLINK-5591,2023-028AG,2026-06-08T21:13:25.211712,14.98329752,.0002477,69.9995,354.5055,269.6850,90.4025,0,U,55771,999,18019,.226E-4,.177E-5,0
STARLINK-5835,2023-028AH,2026-06-08T20:49:36.782112,14.98330273,.0002722,69.9996,354.4482,267.8822,92.2025,0,U,55772,999,18019,-.25951E-4,-.403E-5,0
STARLINK-5833,2023-028AJ,2026-06-08T23:13:35.757408,14.98331011,.0002749,69.9991,354.3931,272.1369,87.9475,0,U,55773,999,18020,.10818E-4,.36E-6,0
STARLINK-5812,2023-028AK,2026-06-08T21:07:26.022720,14.98322974,.0002832,69.9997,354.4904,275.6948,84.3888,0,U,55774,999,18019,.50817E-4,.513E-5,0
STARLINK-5809,2023-028AL,2026-06-08T21:01:23.735424,14.98330531,.0002847,69.9993,354.4758,267.1289,92.9544,0,U,55775,999,18019,.39608E-4,.38E-5,0
STARLINK-5814,2023-028AN,2026-06-08T20:49:22.577088,14.98330005,.0002641,69.9993,354.4467,270.2706,89.8151,0,U,55777,999,18019,-.17878E-4,-.306E-5,0
STARLINK-5816,2023-028AP,2026-06-08T20:43:22.562112,14.98335084,.0002707,69.9992,354.4320,274.7562,85.3288,0,U,55778,999,18019,.51049E-4,.516E-5,0
STARLINK-5817,2023-028AQ,2026-06-08T21:37:06.070080,14.98329462,.0003137,70.0001,334.2791,268.9736,91.1063,0,U,55779,999,18069,.14173E-4,.76E-6,0
STARLINK-5819,2023-028AR,2026-06-08T20:37:21.074016,14.98331762,.0002928,69.9996,354.4172,268.4606,91.6218,0,U,55780,999,18019,-.37521E-5,-.138E-5,0
STARLINK-5820,2023-028AS,2026-06-08T20:55:23.390400,14.98329339,.0002729,69.9996,354.4952,270.6573,89.4273,0,U,55781,999,18019,.14116E-5,-.76E-6,0
STARLINK-5826,2023-028AT,2026-06-08T21:31:21.921600,14.98331337,.0002823,69.9997,334.6719,266.7865,93.2971,0,U,55782,999,18068,.50345E-4,.508E-5,0
STARLINK-5825,2023-028AU,2026-06-08T21:31:07.664736,14.98334051,.0003045,69.9998,334.6703,268.7113,91.3697,0,U,55783,999,18068,.51605E-5,-.31E-6,0
STARLINK-5797,2023-028AV,2026-06-08T21:07:19.389792,14.98328219,.0002575,70.0006,334.6126,268.5706,91.5158,0,U,55784,999,18068,-.32267E-4,-.478E-5,0
STARLINK-5818,2023-028AW,2026-06-08T21:25:07.234176,14.98329333,.000215,69.9995,334.6554,270.8511,89.2402,0,U,55785,999,18068,.14514E-4,.8E-6,0
STARLINK-5823,2023-028AX,2026-06-09T00:00:04.000320,14.98333908,.000309,70.0008,334.3090,272.9364,14.9118,0,U,55786,999,567,-.21854E-3,-.27E-4,0
STARLINK-5811,2023-028AY,2026-06-08T21:19:06.572064,14.98328693,.0002859,69.9992,334.6410,269.7663,90.3169,0,U,55787,999,18068,-.67416E-5,-.173E-5,0
